[
    {
        "Altitude(m)": 604234.612103489,
        "Argument of Periapsis(deg)": 0.0,
        "Eccentricity": 0.0,
        "Inclination(deg)": 60.0,
        "Latitude(deg)": 14.11725215221074,
        "Longitude(deg)": 171.72735502592212,
        "Mean Anomaly(deg)": 163.6364,
        "RAAN(deg)": 100.0,
        "Satellite Name": "Test1 450",
        "Satellite Number": 450,
        "Semi-Major Axis(m)": 6980739.136638005,
        "Time(s)": 0
    },
    {
        "Altitude(m)": 604223.4404775392,
        "Argument of Periapsis(deg)": 0.00010418945913296404,
        "Eccentricity": 0.0,
        "Inclination(deg)": 60.0,
        "Latitude(deg)": 13.582387963728229,
        "Longitude(deg)": 172.01426313089803,
        "Mean Anomaly(deg)": 164.25650614546183,
        "RAAN(deg)": 99.99957995086025,
        "Satellite Name": "Test1 450",
        "Satellite Number": 450,
        "Semi-Major Axis(m)": 6980739.136638005,
        "Time(s)": 10
    },
    {
        "Altitude(m)": 604215.2241210255,
        "Argument of Periapsis(deg)": 0.0002083789182659281,
        "Eccentricity": 0.0,
        "Inclination(deg)": 60.0,
        "Latitude(deg)": 13.047075640255036,
        "Longitude(deg)": 172.29970072562585,
        "Mean Anomaly(deg)": 164.87661229092367,
        "RAAN(deg)": 99.99915990172052,
        "Satellite Name": "Test1 450",
        "Satellite Number": 450,
        "Semi-Major Axis(m)": 6980739.136638005,
        "Time(s)": 20
    },
    {
        "Altitude(m)": 604209.9909260793,
        "Argument of Periapsis(deg)": 0.00031256837739889213,
        "Eccentricity": 0.0,
        "Inclination(deg)": 60.0,
        "Latitude(deg)": 12.511335570360334,
        "Longitude(deg)": 172.58373252345842,
        "Mean Anomaly(deg)": 165.49671843638552,
        "RAAN(deg)": 99.99873985258077,
        "Satellite Name": "Test1 450",
        "Satellite Number": 450,
        "Semi-Major Axis(m)": 6980739.136638005,
        "Time(s)": 30
    },
    {
        "Altitude(m)": 604207.767440773,
        "Argument of Periapsis(deg)": 0.0004167578365318562,
        "Eccentricity": 0.0,
        "Inclination(deg)": 60.0,
        "Latitude(deg)": 11.975187866656949,
        "Longitude(deg)": 172.86642289236772,
        "Mean Anomaly(deg)": 166.11682458184734,
        "RAAN(deg)": 99.99831980344103,
        "Satellite Name": "Test1 450",
        "Satellite Number": 450,
        "Semi-Major Axis(m)": 6980739.136638005,
        "Time(s)": 40
    },
    {
        "Altitude(m)": 604208.5788533557,
        "Argument of Periapsis(deg)": 0.0005209472956648203,
        "Eccentricity": 0.0,
        "Inclination(deg)": 60.0,
        "Latitude(deg)": 11.438652379750303,
        "Longitude(deg)": 173.14783488666194,
        "Mean Anomaly(deg)": 166.7369307273092,
        "RAAN(deg)": 99.99789975430129,
        "Satellite Name": "Test1 450",
        "Satellite Number": 450,
        "Semi-Major Axis(m)": 6980739.136638005,
        "Time(s)": 50
    },
    {
        "Altitude(m)": 604212.4489770983,
        "Argument of Periapsis(deg)": 0.0006251367547977843,
        "Eccentricity": 0.0,
        "Inclination(deg)": 60.0,
        "Latitude(deg)": 10.901748711828773,
        "Longitude(deg)": 173.42803079088696,
        "Mean Anomaly(deg)": 167.35703687277098,
        "RAAN(deg)": 99.99747970516155,
        "Satellite Name": "Test1 450",
        "Satellite Number": 450,
        "Semi-Major Axis(m)": 6980739.136638005,
        "Time(s)": 60
    },
    {
        "Altitude(m)": 604219.400235851,
        "Argument of Periapsis(deg)": 0.0007293262139307483,
        "Eccentricity": 0.0,
        "Inclination(deg)": 60.0,
        "Latitude(deg)": 10.364496229915265,
        "Longitude(deg)": 173.70707266307048,
        "Mean Anomaly(deg)": 167.97714301823282,
        "RAAN(deg)": 99.9970596560218,
        "Satellite Name": "Test1 450",
        "Satellite Number": 450,
        "Semi-Major Axis(m)": 6980739.136638005,
        "Time(s)": 70
    },
    {
        "Altitude(m)": 604229.453650203,
        "Argument of Periapsis(deg)": 0.0008335156730637124,
        "Eccentricity": 0.0,
        "Inclination(deg)": 60.0,
        "Latitude(deg)": 9.826914078803629,
        "Longitude(deg)": 173.98502136446257,
        "Mean Anomaly(deg)": 168.5972491636947,
        "RAAN(deg)": 99.99663960688206,
        "Satellite Name": "Test1 450",
        "Satellite Number": 450,
        "Semi-Major Axis(m)": 6980739.136638005,
        "Time(s)": 80
    },
    {
        "Altitude(m)": 604242.628824424,
        "Argument of Periapsis(deg)": 0.0009377051321966765,
        "Eccentricity": 0.0,
        "Inclination(deg)": 60.0,
        "Latitude(deg)": 9.289021193690246,
        "Longitude(deg)": 174.26193710155007,
        "Mean Anomaly(deg)": 169.21735530915646,
        "RAAN(deg)": 99.99621955774232,
        "Satellite Name": "Test1 450",
        "Satellite Number": 450,
        "Semi-Major Axis(m)": 6980739.136638005,
        "Time(s)": 90
    },
    {
        "Altitude(m)": 604258.9439339666,
        "Argument of Periapsis(deg)": 0.0010418945913296407,
        "Eccentricity": 0.0,
        "Inclination(deg)": 60.0,
        "Latitude(deg)": 8.750836312522189,
        "Longitude(deg)": 174.5378799675017,
        "Mean Anomaly(deg)": 169.83746145461834,
        "RAAN(deg)": 99.99579950860257,
        "Satellite Name": "Test1 450",
        "Satellite Number": 450,
        "Semi-Major Axis(m)": 6980739.136638005,
        "Time(s)": 100
    },
    {
        "Altitude(m)": 604278.4157137921,
        "Argument of Periapsis(deg)": 0.0011460840504626045,
        "Eccentricity": 0.0,
        "Inclination(deg)": 60.0,
        "Latitude(deg)": 8.212377988082725,
        "Longitude(deg)": 174.81290897019798,
        "Mean Anomaly(deg)": 170.45756760008015,
        "RAAN(deg)": 99.99537945946282,
        "Satellite Name": "Test1 450",
        "Satellite Number": 450,
        "Semi-Major Axis(m)": 6980739.136638005,
        "Time(s)": 110
    },
    {
        "Altitude(m)": 604301.05944729,
        "Argument of Periapsis(deg)": 0.0012502735095955685,
        "Eccentricity": 0.0,
        "Inclination(deg)": 60.0,
        "Latitude(deg)": 7.673664599823019,
        "Longitude(deg)": 175.08708257262512,
        "Mean Anomaly(deg)": 171.077673745542,
        "RAAN(deg)": 99.99495941032309,
        "Satellite Name": "Test1 450",
        "Satellite Number": 450,
        "Semi-Major Axis(m)": 6980739.136638005,
        "Time(s)": 120
    },
    {
        "Altitude(m)": 604326.8889559706,
        "Argument of Periapsis(deg)": 0.0013544629687285324,
        "Eccentricity": 0.0,
        "Inclination(deg)": 60.0,
        "Latitude(deg)": 7.134714365461892,
        "Longitude(deg)": 175.36045923278726,
        "Mean Anomaly(deg)": 171.6977798910038,
        "RAAN(deg)": 99.99453936118334,
        "Satellite Name": "Test1 450",
        "Satellite Number": 450,
        "Semi-Major Axis(m)": 6980739.136638005,
        "Time(s)": 130
    },
    {
        "Altitude(m)": 604355.9165898552,
        "Argument of Periapsis(deg)": 0.0014586524278614966,
        "Eccentricity": 0.0,
        "Inclination(deg)": 60.0,
        "Latitude(deg)": 6.59554535237007,
        "Longitude(deg)": 175.63309643029473,
        "Mean Anomaly(deg)": 172.3178860364657,
        "RAAN(deg)": 99.99411931204361,
        "Satellite Name": "Test1 450",
        "Satellite Number": 450,
        "Semi-Major Axis(m)": 6980739.136638005,
        "Time(s)": 140
    },
    {
        "Altitude(m)": 604388.1532185563,
        "Argument of Periapsis(deg)": 0.0015628418869944607,
        "Eccentricity": 0.0,
        "Inclination(deg)": 60.0,
        "Latitude(deg)": 6.056175488751156,
        "Longitude(deg)": 175.90505120540305,
        "Mean Anomaly(deg)": 172.93799218192746,
        "RAAN(deg)": 99.99369926290386,
        "Satellite Name": "Test1 450",
        "Satellite Number": 450,
        "Semi-Major Axis(m)": 6980739.136638005,
        "Time(s)": 150
    },
    {
        "Altitude(m)": 604423.608223146,
        "Argument of Periapsis(deg)": 0.0016670313461274247,
        "Eccentricity": 0.0,
        "Inclination(deg)": 60.0,
        "Latitude(deg)": 5.516622574635115,
        "Longitude(deg)": 176.17638069766133,
        "Mean Anomaly(deg)": 173.5580983273893,
        "RAAN(deg)": 99.99327921376411,
        "Satellite Name": "Test1 450",
        "Satellite Number": 450,
        "Semi-Major Axis(m)": 6980739.136638005,
        "Time(s)": 160
    },
    {
        "Altitude(m)": 604462.289488674,
        "Argument of Periapsis(deg)": 0.0017712208052603888,
        "Eccentricity": 0.0,
        "Inclination(deg)": 60.0,
        "Latitude(deg)": 4.976904292704733,
        "Longitude(deg)": 176.4471411713235,
        "Mean Anomaly(deg)": 174.17820447285115,
        "RAAN(deg)": 99.99285916462438,
        "Satellite Name": "Test1 450",
        "Satellite Number": 450,
        "Semi-Major Axis(m)": 6980739.136638005,
        "Time(s)": 170
    },
    {
        "Altitude(m)": 604504.2033974861,
        "Argument of Periapsis(deg)": 0.001875410264393353,
        "Eccentricity": 0.0,
        "Inclination(deg)": 60.0,
        "Latitude(deg)": 4.437038218961954,
        "Longitude(deg)": 176.71738855330068,
        "Mean Anomaly(deg)": 174.79831061831294,
        "RAAN(deg)": 99.99243911548463,
        "Satellite Name": "Test1 450",
        "Satellite Number": 450,
        "Semi-Major Axis(m)": 6980739.136638005,
        "Time(s)": 180
    },
    {
        "Altitude(m)": 604549.3548232383,
        "Argument of Periapsis(deg)": 0.0019795997235263173,
        "Eccentricity": 0.0,
        "Inclination(deg)": 60.0,
        "Latitude(deg)": 3.8970418332527204,
        "Longitude(deg)": 176.98717897081008,
        "Mean Anomaly(deg)": 175.41841676377476,
        "RAAN(deg)": 99.9920190663449,
        "Satellite Name": "Test1 450",
        "Satellite Number": 450,
        "Semi-Major Axis(m)": 6980739.136638005,
        "Time(s)": 190
    }
]